satname,norad_id,inclination_deg,eccentricity,mean_motion_rev_per_day,perigee_km,apogee_km,l1,l2
STARLINK-1183,45088,53.0557,0.0001469,15.06404413,546.1807010455714,548.2153644781974,1 45088U 20006AW  25332.45403630  .00000901  00000+0  79346-4 0  9995,2 45088  53.0557 341.0840 0001469  90.5915 269.5242 15.06404413321768
STARLINK-1142,45093,53.028,0.0008231,15.75934879,336.44086795732346,347.503511705625,1 45093U 20006BB  25332.91667823  .00349182  00000+0  21207-2 0  9996,2 45093  53.0280 259.7527 0008231 121.1085  25.9538 15.75934879  6017
STARLINK-1152,45096,53.0473,0.0004241,15.26849441,482.32676756281035,488.14828183466125,1 45096U 20006BE  25332.37234058  .00066071  00000+0  24622-2 0  9996,2 45096  53.0473 319.9292 0004241 329.2947  30.7802 15.26849441322056
STARLINK-1184,45098,53.0552,0.0001318,15.06405396,546.2822612645705,548.107778785049,1 45098U 20006BG  25332.40243016  .00000895  00000+0  78985-4 0  9991,2 45098  53.0552 341.3140 0001318  95.8265 264.2874 15.06405396321752
STARLINK-1193,45100,53.0552,0.0001302,15.06401421,546.3055229661613,548.1088825965653,1 45100U 20006BJ  25332.39875111  .00004748  00000+0  33743-3 0  9993,2 45100  53.0552 341.3302 0001302  94.8248 265.2890 15.06401421321753
STARLINK-1143,45179,53.0515,0.0005657,15.44485318,429.0377848630196,436.7437816970223,1 45179U 20012B   25332.63663207  .00023717  00000+0  51107-3 0  9995,2 45179  53.0515  96.7710 0005657 147.3470 212.7886 15.44485318320222
STARLINK-1202,45183,53.0541,0.0001306,15.06396849,546.3167635333648,548.1256670992052,1 45183U 20012F   25332.79315337  .00001763  00000+0  13722-3 0  9993,2 45183  53.0541 139.5630 0001306  94.3374 265.7764 15.06396849319638
STARLINK-1216,45185,53.0539,0.0001267,15.06390546,546.3630879047278,548.1179785716513,1 45185U 20012H   25332.78577422  .00000491  00000+0  51837-4 0  9996,2 45185  53.0539 139.5931 0001267  91.9155 268.1979 15.06390546319573
STARLINK-1225,45187,53.0543,0.0001308,15.06395561,546.3193254964499,548.1310002382561,1 45187U 20012K   25332.47246806  .00000628  00000+0  61027-4 0  9997,2 45187  53.0543 141.0003 0001308  87.7658 272.3481 15.06395561319572
STARLINK-1230,45189,53.0541,0.0001436,15.06397719,546.2240678267553,548.2130299403943,1 45189U 20012M   25332.47615613  .00000766  00000+0  70303-4 0  9995,2 45189  53.0541 140.9871 0001436  91.5545 268.5608 15.06397719316801
STARLINK-1234,45190,53.0516,0.0002991,15.40669221,442.0924671718303,446.1735490906958,1 45190U 20012N   25332.61371924  .00100169  00000+0  23968-2 0  9998,2 45190  53.0516  91.0804 0002991 287.1617  72.9059 15.40669221320199
STARLINK-1269,45197,53.0522,0.0001309,15.06395922,546.3175266868448,548.1305862114232,1 45197U 20012V   25332.61990835  .00000597  00000+0  58973-4 0  9993,2 45197  53.0522 140.3381 0001309  94.3153 265.7986 15.06395922319573
STARLINK-1154,45198,53.0539,9.19e-05,15.06394665,546.5914679580164,547.8643500282897,1 45198U 20012W   25332.67703846  .00001190  00000+0  98760-4 0  9992,2 45198  53.0539 120.0817 0000919  58.3154 301.7924 15.06394665319833
STARLINK-1199,45201,53.0538,0.0001292,15.06394509,546.3336299055345,548.1231443215647,1 45201U 20012Z   25332.62174881 -.00000064  00000+0  14583-4 0  9994,2 45201  53.0538 120.3306 0001292  95.5443 264.5693 15.06394509319883
STARLINK-1209,45206,53.0522,0.0003535,15.34301089,460.57889938302924,465.41558129094665,1 45206U 20012AE  25332.91667823  .00071284  00000+0  21071-2 0  9993,2 45206  53.0522  91.5064 0003535 305.5241  56.7119 15.34301089  5915
STARLINK-1210,45207,53.022,0.000434,15.64112829,372.86025127432185,378.72266117432446,1 45207U 20012AF  25332.91667823  .00148956  00000+0  15193-2 0  9993,2 45207  53.0220  47.8748 0004340 139.9765  58.8787 15.64112829  5941
STARLINK-1231,45212,53.0505,0.0006535,15.1408814,519.2378962093971,528.2586602680558,1 45212U 20012AL  25332.64276696  .00041483  00000+0  22554-2 0  9999,2 45212  53.0505 117.2301 0006535 131.1243 229.0315 15.14088140319886
STARLINK-1271,45217,53.0543,0.0001319,15.06390841,546.3261719189913,548.1530862737463,1 45217U 20012AR  25332.60700783  .00000857  00000+0  76449-4 0  9993,2 45217  53.0543 120.3963 0001319  86.7412 273.3728 15.06390841319885
STARLINK-1191,45222,53.0561,0.0002301,15.06423936,545.5446926938857,548.7317043402436,1 45222U 20012AW  25332.61618702  .00004512  00000+0  32141-3 0  9991,2 45222  53.0561 100.3545 0002301  98.8416 261.2834 15.06423936320164
STARLINK-1212,45223,53.0545,0.0001452,15.06393415,546.2261765473222,548.2373036294439,1 45223U 20012AX  25332.63472789  .00000955  00000+0  83005-4 0  9990,2 45223  53.0545 100.9274 0001452  91.2529 268.8626 15.06393415320160
STARLINK-1215,45225,53.0536,0.0001316,15.06388731,546.3347156001173,548.1574764309889,1 45225U 20012AZ  25332.65675998  .00000774  00000+0  70871-4 0  9997,2 45225  53.0536 100.1716 0001316  89.3700 270.7440 15.06388731320120
STARLINK-1221,45227,53.0686,0.0004992,15.37925366,448.835403594112,455.6548571130561,1 45227U 20012BB  25332.53494125  .00046392  00000+0  12283-2 0  9994,2 45227  53.0686  27.4862 0004992  52.8655 307.2804 15.37925366321124
STARLINK-1222,45228,53.0534,7.58e-05,15.10965889,532.7291333468429,533.776900073377,1 45228U 20012BC  25332.91667823  .00003524  00000+0  22614-3 0  9994,2 45228  53.0534  98.9348 0000758  64.3934 122.7846 15.10965889  5842
STARLINK-1226,45229,53.0548,0.0001246,15.06394779,546.3646591734059,548.0904600216572,1 45229U 20012BD  25332.78576934  .00000783  00000+0  71466-4 0  9996,2 45229  53.0548  99.5910 0001246  89.6120 270.5012 15.06394779320082
STARLINK-1227,45230,53.0538,0.0001304,15.06393804,546.3274799227393,548.1336157792184,1 45230U 20012BE  25332.78208897  .00000760  00000+0  69915-4 0  9999,2 45230  53.0538  99.6091 0001304 112.6871 247.4255 15.06393804320203
STARLINK-1246,45235,53.0541,0.0001387,15.06392433,546.2742007388142,548.1952988622088,1 45235U 20012BK  25332.46509878  .00000721  00000+0  67306-4 0  9991,2 45235  53.0541 141.0332 0001387  86.9038 273.2109 15.06392433319605
STARLINK-1270,45237,53.0577,0.0001605,15.06388358,546.1357150509266,548.3587633917159,1 45237U 20012BM  25332.60147647  .00000394  00000+0  45362-4 0  9995,2 45237  53.0577 100.4211 0001605 103.0692 257.0476 15.06388358320162
STARLINK-1279,45360,53.0508,0.0008946,15.38696549,443.8542979725826,456.071133984412,1 45360U 20019A   25332.81301911  .00066592  00000+0  17091-2 0  9996,2 45360  53.0508 220.9009 0008946 103.1228 257.0774 15.38696549315059
STARLINK-1301,45361,53.0502,0.0008871,15.4149819,435.6370556203292,447.7367872217137,1 45361U 20019B   25332.79366704  .00052926  00000+0  12428-2 0  9990,2 45361  53.0502 230.1981 0008871  96.3703 263.8312 15.41498190314939
STARLINK-1306,45362,53.0405,0.0005378,15.81117883,323.67202147090666,330.88436605331754,1 45362U 20019C   25332.91667823  .00169117  00000+0  83353-3 0  9998,2 45362  53.0405 212.3676 0005378  80.2734  64.6450 15.81117883  5927
STARLINK-1262,45366,53.0561,0.0001573,15.06389861,546.1532704710653,548.3319949035085,1 45366U 20019G   25332.51301554  .00002427  00000+0  18182-3 0  9992,2 45366  53.0561 260.8129 0001573  84.1424 275.9744 15.06389861314488
STARLINK-1273,45367,53.0528,0.0001573,15.06395267,546.1367043296241,548.3154235495385,1 45367U 20019H   25332.53513217  .00000137  00000+0  28100-4 0  9994,2 45367  53.0528 260.7159 0001573  96.3247 263.7922 15.06395267314482
STARLINK-1276,45368,53.054,0.000134,15.06404828,546.2687661292039,548.1247555771124,1 45368U 20019J   25332.50564634  .00002791  00000+0  20619-3 0  9995,2 45368  53.0540 260.8502 0001340  74.9440 285.1697 15.06404828314480
STARLINK-1277,45369,53.0542,0.0001515,15.06396517,546.1730409284255,548.2714247759795,1 45369U 20019K   25332.83009257  .00002065  00000+0  15748-3 0  9998,2 45369  53.0542 260.0217 0001515  89.5710 270.5452 15.06396517314521
STARLINK-1281,45370,53.0552,0.0001752,15.06398329,546.0033573527262,548.4300012819585,1 45370U 20019L   25332.09651501  .00004729  00000+0  33620-3 0  9991,2 45370  53.0552 262.6895 0001752 100.0617 260.0570 15.06398329314429
STARLINK-1300,45374,53.0544,0.0002588,15.06403096,545.4097914093363,548.9943469115324,1 45374U 20019Q   25332.51671136  .00004719  00000+0  33547-3 0  9995,2 45374  53.0544 260.7993 0002588  87.8707 272.2579 15.06403096314480
STARLINK-1302,45375,53.0538,0.0002094,15.06392131,545.7855023566908,548.685848433146,1 45375U 20019R   25332.53145700  .00005908  00000+0  41525-3 0  9997,2 45375  53.0538 260.7350 0002094  89.2654 270.8575 15.06392131314487
STARLINK-1304,45376,53.0527,0.0001206,15.06392112,546.4005336760147,548.0709335793654,1 45376U 20019S   25332.81527238  .00003281  00000+0  23910-3 0  9999,2 45376  53.0527 259.4588 0001206  92.7970 267.3157 15.06392112314529
STARLINK-1305,45377,53.0524,0.0007711,15.35306603,454.7370559879337,465.2828462159232,1 45377U 20019T   25332.52236320  .00053118  00000+0  15262-2 0  9991,2 45377  53.0524 253.1891 0007711  92.3431 267.8453 15.35306603314593
STARLINK-1319,45379,53.0529,0.0006256,15.40099306,441.5468970802913,450.0850270264118,1 45379U 20019V   25332.52397506  .00066858  00000+0  16398-2 0  9993,2 45379  53.0529 254.6783 0006256  97.8013 262.3701 15.40099306314574
STARLINK-1266,45383,53.0533,0.0001547,15.06404445,546.1265853725781,548.2692840013697,1 45383U 20019Z   25332.17207356  .00014995  00000+0  10233-2 0  9999,2 45383  53.0533 242.3517 0001547  89.4428 270.6739 15.06404445314702
STARLINK-1267,45384,53.0533,0.0001645,15.06392134,546.0964423966816,548.3748900038609,1 45384U 20019AA  25332.48915371  .00005555  00000+0  39164-3 0  9994,2 45384  53.0533 241.5816 0001645  92.6918 267.4259 15.06392134314741
STARLINK-1272,45386,53.0519,0.0008389,15.38355383,445.2432653168098,456.70114474100683,1 45386U 20019AC  25332.79987395  .00071123  00000+0  18443-2 0  9995,2 45386  53.0519 231.5031 0008389 104.0893 256.1042 15.38355383314911
